$$SOE
2460154.500000000, A.D. 2023-Jul-29 00:00:00.0000, -2.747880669478856E+08, 2.633889145465390E+08, -1.899621574086834E+07,
2460161.500000000, A.D. 2023-Aug-05 00:00:00.0000, -2.812377487729433E+08, 2.550758789198534E+08, -1.941038923070040E+07,
2460168.500000000, A.D. 2023-Aug-12 00:00:00.0000, -2.874390052607475E+08, 2.465374956302485E+08, -1.980741239541177E+07,
2460175.500000000, A.D. 2023-Aug-19 00:00:00.0000, -2.933843957034228E+08, 2.377796213971692E+08, -2.018679894956139E+07,
2460182.500000000, A.D. 2023-Aug-26 00:00:00.0000, -2.990665086786868E+08, 2.288083328426214E+08, -2.054806510272538E+07,
2460189.500000000, A.D. 2023-Sep-02 00:00:00.0000, -3.044779651052544E+08, 2.196299343853996E+08, -2.089072977894232E+07,
2460196.500000000, A.D. 2023-Sep-09 00:00:00.0000, -3.096114218346665E+08, 2.102509663378749E+08, -2.121431488501725E+07,
2460203.500000000, A.D. 2023-Sep-16 00:00:00.0000, -3.144595756509380E+08, 2.006782131387525E+08, -2.151834565043361E+07,
2460210.500000000, A.D. 2023-Sep-23 00:00:00.0000, -3.190151673037273E+08, 1.909187119974258E+08, -2.180235105626846E+07,
2460217.500000000, A.D. 2023-Sep-30 00:00:00.0000, -3.232709859597642E+08, 1.809797631262548E+08, -2.206586422744938E+07,
2460224.500000000, A.D. 2023-Oct-07 00:00:00.0000, -3.272198764767537E+08, 1.708689410013997E+08, -2.230842262030447E+07,
2460231.500000000, A.D. 2023-Oct-14 00:00:00.0000, -3.308547485127566E+08, 1.605941033224327E+08, -2.252956837545184E+07,
2460238.500000000, A.D. 2023-Oct-21 00:00:00.0000, -3.341685842909186E+08, 1.501633992504464E+08, -2.272884900368343E+07,
2460245.500000000, A.D. 2023-Oct-28 00:00:00.0000, -3.371544464971777E+08, 1.395852791515934E+08, -2.290581809196093E+07,
2460252.500000000, A.D. 2023-Nov-04 00:00:00.0000, -3.398054876239772E+08, 1.288685050409825E+08, -2.306003598214785E+07,
2460259.500000000, A.D. 2023-Nov-11 00:00:00.0000, -3.421149606462277E+08, 1.180221610900878E+08, -2.319107049222299E+07,
2460266.500000000, A.D. 2023-Nov-18 00:00:00.0000, -3.440762308737071E+08, 1.070556640886667E+08, -2.329849770932753E+07,
2460273.500000000, A.D. 2023-Nov-25 00:00:00.0000, -3.456827889733462E+08, 9.597877383088736E+07, -2.338190286362509E+07,
2460280.500000000, A.D. 2023-Dec-02 00:00:00.0000, -3.469282652023789E+08, 8.480160335413070E+07, -2.344088129104088E+07,
2460287.500000000, A.D. 2023-Dec-09 00:00:00.0000, -3.478064448454808E+08, 7.353462890376550E+07, -2.347503950171213E+07,
2460294.500000000, A.D. 2023-Dec-16 00:00:00.0000, -3.483112846390027E+08, 6.218869956080437E+07, -2.348399638431073E+07,
2460301.500000000, A.D. 2023-Dec-23 00:00:00.0000, -3.484369299011281E+08, 5.077504713470860E+07, -2.346738452612269E+07,
2460308.500000000, A.D. 2023-Dec-30 00:00:00.0000, -3.481777337707413E+08, 3.930529727195677E+07, -2.342485144326267E+07,
2460315.500000000, A.D. 2024-Jan-06 00:00:00.0000, -3.475282803899601E+08, 2.779147930426442E+07, -2.335606075439151E+07,
2460322.500000000, A.D. 2024-Jan-13 00:00:00.0000, -3.464834089229386E+08, 1.624603290010295E+07, -2.326069374046852E+07,
2460329.500000000, A.D. 2024-Jan-20 00:00:00.0000, -3.450382372487702E+08, 4.681814462057832E+06, -2.313845115445359E+07,
2460336.500000000, A.D. 2024-Jan-27 00:00:00.0000, -3.431881874149901E+08, -6.887896235681503E+06, -2.298905504585353E+07,
2460343.500000000, A.D. 2024-Feb-03 00:00:00.0000, -3.409290133367182E+08, -1.844939028913305E+07, -2.281225064368460E+07,
2460350.500000000, A.D. 2024-Feb-10 00:00:00.0000, -3.382568305102372E+08, -2.998852525881835E+07, -2.260780835119880E+07,
2460357.500000000, A.D. 2024-Feb-17 00:00:00.0000, -3.351681476308913E+08, -4.149072230741940E+07, -2.237552586611114E+07,
2460364.500000000, A.D. 2024-Feb-24 00:00:00.0000, -3.316599000909229E+08, -5.294096508495048E+07, -2.211523042839351E+07,
2460371.500000000, A.D. 2024-Mar-02 00:00:00.0000, -3.277294853228107E+08, -6.432380063238576E+07, -2.182678119987708E+07,
2460378.500000000, A.D. 2024-Mar-09 00:00:00.0000, -3.233747998253512E+08, -7.562334262291753E+07, -2.151007179131404E+07,
2460385.500000000, A.D. 2024-Mar-16 00:00:00.0000, -3.185942774305812E+08, -8.682327701627278E+07, -2.116503295335566E+07,
2460392.500000000, A.D. 2024-Mar-23 00:00:00.0000, -3.133869288410440E+08, -9.790686930457693E+07, -2.079163532573324E+07,
2460399.500000000, A.D. 2024-Mar-30 00:00:00.0000, -3.077523845726643E+08, -1.088569736781568E+08, -2.038989203360898E+07,
2460406.500000000, A.D. 2024-Apr-06 00:00:00.0000, -3.016909409086680E+08, -1.196560477932485E+08, -1.995986142026514E+07,
2460413.500000000, A.D. 2024-Apr-13 00:00:00.0000, -2.952036051373351E+08, -1.302861726257138E+08, -1.950165016099527E+07,
2460420.500000000, A.D. 2024-Apr-20 00:00:00.0000, -2.882921407988033E+08, -1.407290750551385E+08, -1.901541643476176E+07,
2460427.500000000, A.D. 2024-Apr-27 00:00:00.0000, -2.809591141740941E+08, -1.509661540643929E+08, -1.850137303871778E+07,
2460434.500000000, A.D. 2024-May-04 00:00:00.0000, -2.732079415927440E+08, -1.609785115853177E+08, -1.795979048738718E+07,
2460441.500000000, A.D. 2024-May-11 00:00:00.0000, -2.650429369376237E+08, -1.707469884135966E+08, -1.739100010116266E+07,
2460448.500000000, A.D. 2024-May-18 00:00:00.0000, -2.564693588298673E+08, -1.802522054720960E+08, -1.679539706105545E+07,
2460455.500000000, A.D. 2024-May-25 00:00:00.0000, -2.474934569749027E+08, -1.894746106994790E+08, -1.617344339946315E+07,
2460462.500000000, A.D. 2024-Jun-01 00:00:00.0000, -2.381225170528213E+08, -1.983945318508228E+08, -1.552567089962818E+07,
2460469.500000000, A.D. 2024-Jun-08 00:00:00.0000, -2.283649032865021E+08, -2.069922354119845E+08, -1.485268388624425E+07,
2460476.500000000, A.D. 2024-Jun-15 00:00:00.0000, -2.182300976056890E+08, -2.152479911996815E+08, -1.415516185286586E+07,
2460483.500000000, A.D. 2024-Jun-22 00:00:00.0000, -2.077287356707625E+08, -2.231421415151376E+08, -1.343386168738224E+07,
2460490.500000000, A.D. 2024-Jun-29 00:00:00.0000, -1.968726410831866E+08, -2.306551766302660E+08, -1.268961939621279E+07,
2460497.500000000, A.D. 2024-Jul-06 00:00:00.0000, -1.856748543029103E+08, -2.377678189418958E+08, -1.192335171637890E+07,
2460504.500000000, A.D. 2024-Jul-13 00:00:00.0000, -1.741496534621683E+08, -2.444611127251517E+08, -1.113605750626634E+07,
2460511.500000000, A.D. 2024-Jul-20 00:00:00.0000, -1.623125681832305E+08, -2.507165179666120E+08, -1.032881858039267E+07,
2460518.500000000, A.D. 2024-Jul-27 00:00:00.0000, -1.501803861763497E+08, -2.565160087301682E+08, -9.502799947730884E+06,
2460525.500000000, A.D. 2024-Aug-03 00:00:00.0000, -1.377711514824370E+08, -2.618421757820845E+08, -8.659249452563316E+06,
2460532.500000000, A.D. 2024-Aug-10 00:00:00.0000, -1.251041533723390E+08, -2.666783326889809E+08, -7.799496780940756E+06,
2460539.500000000, A.D. 2024-Aug-17 00:00:00.0000, -1.121999051023096E+08, -2.710086244349089E+08, -6.924951788226470E+06,
2460546.500000000, A.D. 2024-Aug-24 00:00:00.0000, -9.908011184142008E+07, -2.748181375050468E+08, -6.037102111086532E+06,
2460553.500000000, A.D. 2024-Aug-31 00:00:00.0000, -8.576762711895901E+07, -2.780930102853667E+08, -5.137510046371400E+06,
2460560.500000000, A.D. 2024-Sep-07 00:00:00.0000, -7.228639703566708E+07, -2.808205423177135E+08, -4.227808696959779E+06,
2460567.500000000, A.D. 2024-Sep-14 00:00:00.0000, -5.866139193663938E+07, -2.829892999782735E+08, -3.309697299490407E+06,
2460574.500000000, A.D. 2024-Sep-21 00:00:00.0000, -4.491852755719093E+07, -2.845892166497110E+08, -2.384935515405595E+06,
2460581.500000000, A.D. 2024-Sep-28 00:00:00.0000, -3.108457633066218E+07, -2.856116890420061E+08, -1.455336919611916E+06,
2460588.500000000, A.D. 2024-Oct-05 00:00:00.0000, -1.718706562255371E+07, -2.860496680660351E+08, -5.227620537382066E+05,
2460595.500000000, A.D. 2024-Oct-12 00:00:00.0000, -3.254163920422898E+06, -2.858977397000438E+08, 4.108891851118207E+05,
2460602.500000000, A.D. 2024-Oct-19 00:00:00.0000, 1.068544237340188E+07, -2.851521946054400E+08, 1.343685892235816E+06,
2460609.500000000, A.D. 2024-Oct-26 00:00:00.0000, 2.460268038954502E+07, -2.838110859072167E+08, 2.273675093748257E+06,
2460616.500000000, A.D. 2024-Nov-02 00:00:00.0000, 3.846822938048491E+07, -2.818742740720517E+08, 3.198891143504575E+06,
2460623.500000000, A.D. 2024-Nov-09 00:00:00.0000, 5.225266497571019E+07, -2.793434578371758E+08, 4.117365464887425E+06,
2460630.500000000, A.D. 2024-Nov-16 00:00:00.0000, 6.592660738594643E+07, -2.762221903747884E+08, 5.027136518529668E+06,
2460637.500000000, A.D. 2024-Nov-23 00:00:00.0000, 7.946087173781458E+07, -2.725158801758395E+08, 5.926259862573802E+06,
2460644.500000000, A.D. 2024-Nov-30 00:00:00.0000, 9.282661880064499E+07, -2.682317764114138E+08, 6.812818153073609E+06,
2460651.500000000, A.D. 2024-Dec-07 00:00:00.0000, 1.059955045407854E+08, -2.633789383614989E+08, 7.684930948773175E+06,
2460658.500000000, A.D. 2024-Dec-14 00:00:00.0000, 1.189398258438427E+08, -2.579681879940253E+08, 8.540764352604613E+06,
2460665.500000000, A.D. 2024-Dec-21 00:00:00.0000, 1.316326581795980E+08, -2.520120475310648E+08, 9.378540474366695E+06,
2460672.500000000, A.D. 2024-Dec-28 00:00:00.0000, 1.440479853906958E+08, -2.455246658406909E+08, 1.019654617197581E+07,
2460679.500000000, A.D. 2025-Jan-04 00:00:00.0000, 1.561608225727507E+08, -2.385217324076201E+08, 1.099314091995208E+07,
2460686.500000000, A.D. 2025-Jan-11 00:00:00.0000, 1.679473287920550E+08, -2.310203785767508E+08, 1.176676401513831E+07,
2460693.500000000, A.D. 2025-Jan-18 00:00:00.0000, 1.793849075190445E+08, -2.230390685218140E+08, 1.251594105175878E+07,
2460700.500000000, A.D. 2025-Jan-25 00:00:00.0000, 1.904522940688508E+08, -2.145974820824055E+08, 1.323928954490344E+07,
2460707.500000000, A.D. 2025-Feb-01 00:00:00.0000, 2.011296295538661E+08, -2.057163912585118E+08, 1.393552364098772E+07,
2460714.500000000, A.D. 2025-Feb-08 00:00:00.0000, 2.113985209938673E+08, -1.964175321454931E+08, 1.460345788824281E+07,
$$EOE